HULIANWANG JISHU SHIYAN*
1 57288U 23095A   26204.85747816  .00000055  00000+0  72786-4 0  9992
2 57288  86.5049 352.0809 0019534  89.4796 270.8585 13.39544765148663
HULIANWANG JISHU SHIYAN*
1 57289U 23095B   26204.84891745  .00000046  00000+0  56449-4 0  9991
2 57289  86.5051 352.0933 0018105  87.7298 272.5917 13.39553332148664
HULIANWANG JISHU SHIYAN*
1 58691U 23212A   26204.80577773 -.00000074  00000+0  96468-4 0  9995
2 58691  49.9982 209.5825 0001230 249.5403 110.5342 13.41459606126167
HULIANWANG JISHU SHIYAN*
1 58692U 23212B   26204.57556176 -.00000085  00000+0  77953-4 0  9994
2 58692  49.9950 210.7816 0001364 237.8225 122.2520 13.41460626126136
HULIANWANG JISHU SHIYAN*
1 58693U 23212C   26204.80229216 -.00000071  00000+0  10253-3 0  9997
2 58693  49.9964 210.0784 0001212 228.0024 132.0750 13.41462604126176
HULIANWANG DIGUI-01     
1 62323U 24240A   26204.79030788  .00000012  00000+0 -67110-5 0  9997
2 62323  86.5027 330.8907 0002061 103.7248 256.4116 13.24411831 77489
HULIANWANG DIGUI-02     
1 62324U 24240B   26204.79776905  .00000015  00000+0  18014-6 0  9998
2 62324  86.5056 331.0577 0002035 104.5320 255.6039 13.24411768 77494
HULIANWANG DIGUI-03     
1 62325U 24240C   26204.85829060  .00000027  00000+0  29199-4 0  9994
2 62325  86.5010 330.7637 0002082 101.9566 258.1802 13.24410429 77492
HULIANWANG DIGUI-04     
1 62326U 24240D   26204.85075161  .00000046  00000+0  73713-4 0  9992
2 62326  86.5019 330.8105 0002195 100.9333 259.2048 13.24410728 77495
HULIANWANG DIGUI-05     
1 62327U 24240E   26204.84319488  .00000057  00000+0  99558-4 0  9992
2 62327  86.5071 331.1031 0002213  98.4779 261.6606 13.24411380 77494
HULIANWANG DIGUI-06     
1 62328U 24240F   26204.82810156  .00000046  00000+0  73934-4 0  9997
2 62328  86.5008 330.7427 0002221 104.8592 255.2788 13.24408824 77492
HULIANWANG DIGUI-07     
1 62329U 24240G   26204.82051625  .00000037  00000+0  52201-4 0  9990
2 62329  86.4978 330.5735 0002109 103.7478 256.3891 13.24411310 77495
HULIANWANG DIGUI-08     
1 62330U 24240H   26204.83563589  .00000060  00000+0  10657-3 0  9994
2 62330  86.5062 331.0516 0002273  97.8885 262.2507 13.24411688 77490
HULIANWANG DIGUI-09     
1 62331U 24240J   26204.81297117  .00000029  00000+0  33970-4 0  9993
2 62331  86.5028 330.9082 0002052 102.6490 257.4874 13.24410282 77482
HULIANWANG DIGUI-10     
1 62332U 24240K   26204.80541582  .00000012  00000+0 -51984-5 0  9990
2 62332  86.5059 331.0744 0002169 104.0110 256.1265 13.24411075 77489
HULIANWANG DIGUI-11     
1 62971U 25030A   26204.77264115 -.00000106  00000+0  38704-4 0  9995
2 62971  50.0007 104.5988 0000871 300.0456  60.0330 13.29324829 70729
