{"fetched_at":"2026-07-24T07:06:33.741Z","source":"https://celestrak.org/NORAD/elements/gp.php?NAME=HULIANWANG&FORMAT=JSON","constellation":"guowang","records":[{"OBJECT_NAME":"HULIANWANG JISHU SHIYAN A","OBJECT_ID":"2023-095A","EPOCH":"2026-07-23T20:34:46.113024","CLASSIFICATION_TYPE":"U","MEAN_MOTION":13.39544765,"ECCENTRICITY":0.0019534,"INCLINATION":86.5049,"RA_OF_ASC_NODE":352.0809,"ARG_OF_PERICENTER":89.4796,"MEAN_ANOMALY":270.8585,"EPHEMERIS_TYPE":0,"NORAD_CAT_ID":57288,"ELEMENT_SET_NO":999,"REV_AT_EPOCH":14866,"BSTAR":0.000072786,"MEAN_MOTION_DOT":5.5e-7,"MEAN_MOTION_DDOT":0},{"OBJECT_NAME":"HULIANWANG JISHU SHIYAN B","OBJECT_ID":"2023-095B","EPOCH":"2026-07-23T20:22:26.467680","CLASSIFICATION_TYPE":"U","MEAN_MOTION":13.39553332,"ECCENTRICITY":0.0018105,"INCLINATION":86.5051,"RA_OF_ASC_NODE":352.0933,"ARG_OF_PERICENTER":87.7298,"MEAN_ANOMALY":272.5917,"EPHEMERIS_TYPE":0,"NORAD_CAT_ID":57289,"ELEMENT_SET_NO":999,"REV_AT_EPOCH":14866,"BSTAR":0.000056449,"MEAN_MOTION_DOT":4.6e-7,"MEAN_MOTION_DDOT":0},{"OBJECT_NAME":"HULIANWANG JISHU SHIYAN 4A","OBJECT_ID":"2023-212A","EPOCH":"2026-07-23T19:20:19.195872","CLASSIFICATION_TYPE":"U","MEAN_MOTION":13.41459606,"ECCENTRICITY":0.000123,"INCLINATION":49.9982,"RA_OF_ASC_NODE":209.5825,"ARG_OF_PERICENTER":249.5403,"MEAN_ANOMALY":110.5342,"EPHEMERIS_TYPE":0,"NORAD_CAT_ID":58691,"ELEMENT_SET_NO":999,"REV_AT_EPOCH":12616,"BSTAR":0.000096468,"MEAN_MOTION_DOT":-7.4e-7,"MEAN_MOTION_DDOT":0},{"OBJECT_NAME":"HULIANWANG JISHU SHIYAN 4B","OBJECT_ID":"2023-212B","EPOCH":"2026-07-23T13:48:48.536064","CLASSIFICATION_TYPE":"U","MEAN_MOTION":13.41460626,"ECCENTRICITY":0.0001364,"INCLINATION":49.995,"RA_OF_ASC_NODE":210.7816,"ARG_OF_PERICENTER":237.8225,"MEAN_ANOMALY":122.252,"EPHEMERIS_TYPE":0,"NORAD_CAT_ID":58692,"ELEMENT_SET_NO":999,"REV_AT_EPOCH":12613,"BSTAR":0.000077953,"MEAN_MOTION_DOT":-8.5e-7,"MEAN_MOTION_DDOT":0},{"OBJECT_NAME":"HULIANWANG JISHU SHIYAN 4C","OBJECT_ID":"2023-212C","EPOCH":"2026-07-23T19:15:18.042624","CLASSIFICATION_TYPE":"U","MEAN_MOTION":13.41462604,"ECCENTRICITY":0.0001212,"INCLINATION":49.9964,"RA_OF_ASC_NODE":210.0784,"ARG_OF_PERICENTER":228.0024,"MEAN_ANOMALY":132.075,"EPHEMERIS_TYPE":0,"NORAD_CAT_ID":58693,"ELEMENT_SET_NO":999,"REV_AT_EPOCH":12617,"BSTAR":0.00010253,"MEAN_MOTION_DOT":-7.1e-7,"MEAN_MOTION_DDOT":0},{"OBJECT_NAME":"HULIANWANG DIGUI-01","OBJECT_ID":"2024-240A","EPOCH":"2026-07-23T18:58:02.600832","CLASSIFICATION_TYPE":"U","MEAN_MOTION":13.24411831,"ECCENTRICITY":0.0002061,"INCLINATION":86.5027,"RA_OF_ASC_NODE":330.8907,"ARG_OF_PERICENTER":103.7248,"MEAN_ANOMALY":256.4116,"EPHEMERIS_TYPE":0,"NORAD_CAT_ID":62323,"ELEMENT_SET_NO":999,"REV_AT_EPOCH":7748,"BSTAR":-0.000006711,"MEAN_MOTION_DOT":1.2e-7,"MEAN_MOTION_DDOT":0},{"OBJECT_NAME":"HULIANWANG DIGUI-02","OBJECT_ID":"2024-240B","EPOCH":"2026-07-23T19:08:47.245920","CLASSIFICATION_TYPE":"U","MEAN_MOTION":13.24411768,"ECCENTRICITY":0.0002035,"INCLINATION":86.5056,"RA_OF_ASC_NODE":331.0577,"ARG_OF_PERICENTER":104.532,"MEAN_ANOMALY":255.6039,"EPHEMERIS_TYPE":0,"NORAD_CAT_ID":62324,"ELEMENT_SET_NO":999,"REV_AT_EPOCH":7749,"BSTAR":1.8014e-7,"MEAN_MOTION_DOT":1.5e-7,"MEAN_MOTION_DDOT":0},{"OBJECT_NAME":"HULIANWANG DIGUI-03","OBJECT_ID":"2024-240C","EPOCH":"2026-07-23T20:35:56.307840","CLASSIFICATION_TYPE":"U","MEAN_MOTION":13.24410429,"ECCENTRICITY":0.0002082,"INCLINATION":86.501,"RA_OF_ASC_NODE":330.7637,"ARG_OF_PERICENTER":101.9566,"MEAN_ANOMALY":258.1802,"EPHEMERIS_TYPE":0,"NORAD_CAT_ID":62325,"ELEMENT_SET_NO":999,"REV_AT_EPOCH":7749,"BSTAR":0.000029199,"MEAN_MOTION_DOT":2.7e-7,"MEAN_MOTION_DDOT":0},{"OBJECT_NAME":"HULIANWANG DIGUI-04","OBJECT_ID":"2024-240D","EPOCH":"2026-07-23T20:25:04.939104","CLASSIFICATION_TYPE":"U","MEAN_MOTION":13.24410728,"ECCENTRICITY":0.0002195,"INCLINATION":86.5019,"RA_OF_ASC_NODE":330.8105,"ARG_OF_PERICENTER":100.9333,"MEAN_ANOMALY":259.2048,"EPHEMERIS_TYPE":0,"NORAD_CAT_ID":62326,"ELEMENT_SET_NO":999,"REV_AT_EPOCH":7749,"BSTAR":0.000073713,"MEAN_MOTION_DOT":4.6e-7,"MEAN_MOTION_DDOT":0},{"OBJECT_NAME":"HULIANWANG DIGUI-05","OBJECT_ID":"2024-240E","EPOCH":"2026-07-23T20:14:12.037632","CLASSIFICATION_TYPE":"U","MEAN_MOTION":13.2441138,"ECCENTRICITY":0.0002213,"INCLINATION":86.5071,"RA_OF_ASC_NODE":331.1031,"ARG_OF_PERICENTER":98.4779,"MEAN_ANOMALY":261.6606,"EPHEMERIS_TYPE":0,"NORAD_CAT_ID":62327,"ELEMENT_SET_NO":999,"REV_AT_EPOCH":7749,"BSTAR":0.000099558,"MEAN_MOTION_DOT":5.7e-7,"MEAN_MOTION_DDOT":0},{"OBJECT_NAME":"HULIANWANG DIGUI-06","OBJECT_ID":"2024-240F","EPOCH":"2026-07-23T19:52:27.974784","CLASSIFICATION_TYPE":"U","MEAN_MOTION":13.24408824,"ECCENTRICITY":0.0002221,"INCLINATION":86.5008,"RA_OF_ASC_NODE":330.7427,"ARG_OF_PERICENTER":104.8592,"MEAN_ANOMALY":255.2788,"EPHEMERIS_TYPE":0,"NORAD_CAT_ID":62328,"ELEMENT_SET_NO":999,"REV_AT_EPOCH":7749,"BSTAR":0.000073934,"MEAN_MOTION_DOT":4.6e-7,"MEAN_MOTION_DDOT":0},{"OBJECT_NAME":"HULIANWANG DIGUI-07","OBJECT_ID":"2024-240G","EPOCH":"2026-07-23T19:41:32.604000","CLASSIFICATION_TYPE":"U","MEAN_MOTION":13.2441131,"ECCENTRICITY":0.0002109,"INCLINATION":86.4978,"RA_OF_ASC_NODE":330.5735,"ARG_OF_PERICENTER":103.7478,"MEAN_ANOMALY":256.3891,"EPHEMERIS_TYPE":0,"NORAD_CAT_ID":62329,"ELEMENT_SET_NO":999,"REV_AT_EPOCH":7749,"BSTAR":0.000052201,"MEAN_MOTION_DOT":3.7e-7,"MEAN_MOTION_DDOT":0},{"OBJECT_NAME":"HULIANWANG DIGUI-08","OBJECT_ID":"2024-240H","EPOCH":"2026-07-23T20:03:18.940896","CLASSIFICATION_TYPE":"U","MEAN_MOTION":13.24411688,"ECCENTRICITY":0.0002273,"INCLINATION":86.5062,"RA_OF_ASC_NODE":331.0516,"ARG_OF_PERICENTER":97.8885,"MEAN_ANOMALY":262.2507,"EPHEMERIS_TYPE":0,"NORAD_CAT_ID":62330,"ELEMENT_SET_NO":999,"REV_AT_EPOCH":7749,"BSTAR":0.00010657,"MEAN_MOTION_DOT":6e-7,"MEAN_MOTION_DDOT":0},{"OBJECT_NAME":"HULIANWANG DIGUI-09","OBJECT_ID":"2024-240J","EPOCH":"2026-07-23T19:30:40.709088","CLASSIFICATION_TYPE":"U","MEAN_MOTION":13.24410282,"ECCENTRICITY":0.0002052,"INCLINATION":86.5028,"RA_OF_ASC_NODE":330.9082,"ARG_OF_PERICENTER":102.649,"MEAN_ANOMALY":257.4874,"EPHEMERIS_TYPE":0,"NORAD_CAT_ID":62331,"ELEMENT_SET_NO":999,"REV_AT_EPOCH":7748,"BSTAR":0.00003397,"MEAN_MOTION_DOT":2.9e-7,"MEAN_MOTION_DDOT":0},{"OBJECT_NAME":"HULIANWANG DIGUI-10","OBJECT_ID":"2024-240K","EPOCH":"2026-07-23T19:19:47.926848","CLASSIFICATION_TYPE":"U","MEAN_MOTION":13.24411075,"ECCENTRICITY":0.0002169,"INCLINATION":86.5059,"RA_OF_ASC_NODE":331.0744,"ARG_OF_PERICENTER":104.011,"MEAN_ANOMALY":256.1265,"EPHEMERIS_TYPE":0,"NORAD_CAT_ID":62332,"ELEMENT_SET_NO":999,"REV_AT_EPOCH":7748,"BSTAR":-0.0000051984,"MEAN_MOTION_DOT":1.2e-7,"MEAN_MOTION_DDOT":0},{"OBJECT_NAME":"HULIANWANG DIGUI-11","OBJECT_ID":"2025-030A","EPOCH":"2026-07-23T18:32:36.195360","CLASSIFICATION_TYPE":"U","MEAN_MOTION":13.29324829,"ECCENTRICITY":0.0000871,"INCLINATION":50.0007,"RA_OF_ASC_NODE":104.5988,"ARG_OF_PERICENTER":300.0456,"MEAN_ANOMALY":60.033,"EPHEMERIS_TYPE":0,"NORAD_CAT_ID":62971,"ELEMENT_SET_NO":999,"REV_AT_EPOCH":7072,"BSTAR":0.000038704,"MEAN_MOTION_DOT":-0.00000106,"MEAN_MOTION_DDOT":0}]}
